TJS-12                  
1 62374U 24246A   26063.52197821 -.00000243  00000+0  00000+0 0  9990
2 62374   0.9100 291.6826 0002363  25.7132 179.2447  1.00275198  4519
NUVIEW ALPHA            
1 62455U 24252B   26063.65456731 -.00000226  00000+0  00000+0 0  9990
2 62455   0.0560  24.6611 0002656 333.2938 316.9695  1.00273040  2777
AGILA                   
1 62456U 24252C   26063.60322572 -.00000192  00000+0  00000+0 0  9993
2 62456   0.0259 149.4821 0001454 199.6684 182.4891  1.00273851  4113
NUVIEW BRAVO            
1 62457U 24252D   26063.65498253 -.00000226  00000+0  00000+0 0  9997
2 62457   0.0653 168.3427 0000461 188.2746 318.4307  1.00273335  2741
THURAYA-4               
1 62483U 25001A   26063.29905912  .00000127  00000+0  00000+0 0  9993
2 62483   0.0213 100.0318 0000093 222.2643 351.7094  1.00273304  3122
SHIJIAN-25 (SJ-25)      
1 62485U 25002A   26063.85451895 -.00000357  00000+0  00000+0 0  9990
2 62485   4.8666  61.7713 0048661 166.6278   8.9965  1.00281381  4312
TJS-14                  
1 62804U 25017A   26063.82336479  .00000104  00000+0  00000+0 0  9997
2 62804   1.0266 290.0458 0002334  52.0467 135.2264  1.00270333  4221
SPAINSAT NG I           
1 62852U 25021A   26063.84969719  .00000000  00000+0  00000+0 0  9991
2 62852   0.0250 147.9463 0000127 258.9866  90.5138  1.00271434  2943
QZS-6 (MICHIBIKI-6)     
1 62876U 25023A   26063.71919897 -.00000243  00000+0  00000+0 0  9997
2 62876   0.0435 310.3847 0001869  28.3826 173.1004  1.00270084  3913
ZHONGXING-10R           
1 63075U 25036A   26063.84616050 -.00000362  00000+0  00000+0 0  9994
2 63075   0.0959 262.1180 0001049 292.6850  22.8774  1.00268965  3912
TJS-15                  
1 63157U 25045A   26063.64752995 -.00000275  00000+0  00000+0 0  9995
2 63157   0.2199  88.0626 0006999 265.6894 136.0593  1.00276040  3716
TIANLIAN 2-04           
1 63361U 25062A   26063.73239164 -.00000151  00000+0  00000+0 0  9992
2 63361   4.6427 275.8653 0035043   9.4773 220.8266  1.00271829  3554
TJS-16                  
1 63397U 25064A   26063.81642550 -.00000115  00000+0  00000+0 0  9999
2 63397   0.8290  81.9515 0005238 257.7958 277.2930  1.00272427  3344
TJS-17                  
1 63524U 25073A   26063.84100881 -.00000080  00000+0  00000+0 0  9991
2 63524   0.7944  83.5501 0004504 248.9103 297.3643  1.00271898  3247
TIANLIAN 2-05           
1 63662U 25084A   26063.82336479  .00000109  00000+0  00000+0 0  9999
2 63662   4.7155 280.9688 0003202  79.9005 118.4741  1.00273917  3330
TJS-19                  
1 63924U 25097A   26063.83423451 -.00000287  00000+0  00000+0 0  9990
2 63924   3.4646 315.8161 0003676 335.6979 312.5381  1.00276487  3098
CHINASAT 3B             
1 64062U 25106A   26063.63586117 -.00000057  00000+0  00000+0 0  9997
2 64062   0.0198 124.1411 0001854 201.6252 232.8054  1.00269757  3013
