[{"OBJECT_NAME":"TJS-12","OBJECT_ID":"2024-246A","EPOCH":"2026-03-04T12:31:38.917344","MEAN_MOTION":1.00275198,"ECCENTRICITY":0.00023632,"INCLINATION":0.91,"RA_OF_ASC_NODE":291.6826,"ARG_OF_PERICENTER":25.7132,"MEAN_ANOMALY":179.2447,"EPHEMERIS_TYPE":0,"CLASSIFICATION_TYPE":"U","NORAD_CAT_ID":62374,"ELEMENT_SET_NO":999,"REV_AT_EPOCH":451,"BSTAR":0,"MEAN_MOTION_DOT":-2.43e-6,"MEAN_MOTION_DDOT":0},{"OBJECT_NAME":"NUVIEW ALPHA","OBJECT_ID":"2024-252B","EPOCH":"2026-03-04T15:42:34.615584","MEAN_MOTION":1.0027304,"ECCENTRICITY":0.0002656,"INCLINATION":0.056,"RA_OF_ASC_NODE":24.6611,"ARG_OF_PERICENTER":333.2938,"MEAN_ANOMALY":316.9695,"EPHEMERIS_TYPE":0,"CLASSIFICATION_TYPE":"U","NORAD_CAT_ID":62455,"ELEMENT_SET_NO":999,"REV_AT_EPOCH":277,"BSTAR":0,"MEAN_MOTION_DOT":-2.26e-6,"MEAN_MOTION_DDOT":0},{"OBJECT_NAME":"AGILA","OBJECT_ID":"2024-252C","EPOCH":"2026-03-04T14:28:38.702208","MEAN_MOTION":1.00273851,"ECCENTRICITY":0.0001454,"INCLINATION":0.0259,"RA_OF_ASC_NODE":149.4821,"ARG_OF_PERICENTER":199.6684,"MEAN_ANOMALY":182.4891,"EPHEMERIS_TYPE":0,"CLASSIFICATION_TYPE":"U","NORAD_CAT_ID":62456,"ELEMENT_SET_NO":999,"REV_AT_EPOCH":411,"BSTAR":0,"MEAN_MOTION_DOT":-1.92e-6,"MEAN_MOTION_DDOT":0},{"OBJECT_NAME":"NUVIEW BRAVO","OBJECT_ID":"2024-252D","EPOCH":"2026-03-04T15:43:10.490592","MEAN_MOTION":1.00273335,"ECCENTRICITY":4.61e-5,"INCLINATION":0.0653,"RA_OF_ASC_NODE":168.3427,"ARG_OF_PERICENTER":188.2746,"MEAN_ANOMALY":318.4307,"EPHEMERIS_TYPE":0,"CLASSIFICATION_TYPE":"U","NORAD_CAT_ID":62457,"ELEMENT_SET_NO":999,"REV_AT_EPOCH":274,"BSTAR":0,"MEAN_MOTION_DOT":-2.26e-6,"MEAN_MOTION_DDOT":0},{"OBJECT_NAME":"THURAYA-4","OBJECT_ID":"2025-001A","EPOCH":"2026-03-04T07:10:38.707968","MEAN_MOTION":1.00273304,"ECCENTRICITY":9.35e-6,"INCLINATION":0.0213,"RA_OF_ASC_NODE":100.0318,"ARG_OF_PERICENTER":222.2643,"MEAN_ANOMALY":351.7094,"EPHEMERIS_TYPE":0,"CLASSIFICATION_TYPE":"U","NORAD_CAT_ID":62483,"ELEMENT_SET_NO":999,"REV_AT_EPOCH":312,"BSTAR":0,"MEAN_MOTION_DOT":1.27e-6,"MEAN_MOTION_DDOT":0},{"OBJECT_NAME":"SHIJIAN-25 (SJ-25)","OBJECT_ID":"2025-002A","EPOCH":"2026-03-04T20:30:30.437280","MEAN_MOTION":1.00281381,"ECCENTRICITY":0.0048661,"INCLINATION":4.8666,"RA_OF_ASC_NODE":61.7713,"ARG_OF_PERICENTER":166.6278,"MEAN_ANOMALY":8.9965,"EPHEMERIS_TYPE":0,"CLASSIFICATION_TYPE":"U","NORAD_CAT_ID":62485,"ELEMENT_SET_NO":999,"REV_AT_EPOCH":431,"BSTAR":0,"MEAN_MOTION_DOT":-3.57e-6,"MEAN_MOTION_DDOT":0},{"OBJECT_NAME":"TJS-14","OBJECT_ID":"2025-017A","EPOCH":"2026-03-04T19:45:38.717856","MEAN_MOTION":1.00270333,"ECCENTRICITY":0.0002334,"INCLINATION":1.0266,"RA_OF_ASC_NODE":290.0458,"ARG_OF_PERICENTER":52.0467,"MEAN_ANOMALY":135.2264,"EPHEMERIS_TYPE":0,"CLASSIFICATION_TYPE":"U","NORAD_CAT_ID":62804,"ELEMENT_SET_NO":999,"REV_AT_EPOCH":422,"BSTAR":0,"MEAN_MOTION_DOT":1.04e-6,"MEAN_MOTION_DDOT":0},{"OBJECT_NAME":"SPAINSAT NG I","OBJECT_ID":"2025-021A","EPOCH":"2026-03-04T20:23:33.837216","MEAN_MOTION":1.00271434,"ECCENTRICITY":1.27e-5,"INCLINATION":0.025,"RA_OF_ASC_NODE":147.9463,"ARG_OF_PERICENTER":258.9866,"MEAN_ANOMALY":90.5138,"EPHEMERIS_TYPE":0,"CLASSIFICATION_TYPE":"U","NORAD_CAT_ID":62852,"ELEMENT_SET_NO":999,"REV_AT_EPOCH":294,"BSTAR":0,"MEAN_MOTION_DOT":0,"MEAN_MOTION_DDOT":0},{"OBJECT_NAME":"QZS-6 (MICHIBIKI-6)","OBJECT_ID":"2025-023A","EPOCH":"2026-03-04T17:15:38.791008","MEAN_MOTION":1.00270084,"ECCENTRICITY":0.0001869,"INCLINATION":0.0435,"RA_OF_ASC_NODE":310.3847,"ARG_OF_PERICENTER":28.3826,"MEAN_ANOMALY":173.1004,"EPHEMERIS_TYPE":0,"CLASSIFICATION_TYPE":"U","NORAD_CAT_ID":62876,"ELEMENT_SET_NO":999,"REV_AT_EPOCH":391,"BSTAR":0,"MEAN_MOTION_DOT":-2.43e-6,"MEAN_MOTION_DDOT":0},{"OBJECT_NAME":"ZHONGXING-10R","OBJECT_ID":"2025-036A","EPOCH":"2026-03-04T20:18:28.267200","MEAN_MOTION":1.00268965,"ECCENTRICITY":0.0001049,"INCLINATION":0.0959,"RA_OF_ASC_NODE":262.118,"ARG_OF_PERICENTER":292.685,"MEAN_ANOMALY":22.8774,"EPHEMERIS_TYPE":0,"CLASSIFICATION_TYPE":"U","NORAD_CAT_ID":63075,"ELEMENT_SET_NO":999,"REV_AT_EPOCH":391,"BSTAR":0,"MEAN_MOTION_DOT":-3.62e-6,"MEAN_MOTION_DDOT":0},{"OBJECT_NAME":"TJS-15","OBJECT_ID":"2025-045A","EPOCH":"2026-03-04T15:32:26.587680","MEAN_MOTION":1.0027604,"ECCENTRICITY":0.0006999,"INCLINATION":0.2199,"RA_OF_ASC_NODE":88.0626,"ARG_OF_PERICENTER":265.6894,"MEAN_ANOMALY":136.0593,"EPHEMERIS_TYPE":0,"CLASSIFICATION_TYPE":"U","NORAD_CAT_ID":63157,"ELEMENT_SET_NO":999,"REV_AT_EPOCH":371,"BSTAR":0,"MEAN_MOTION_DOT":-2.75e-6,"MEAN_MOTION_DDOT":0},{"OBJECT_NAME":"TIANLIAN 2-04","OBJECT_ID":"2025-062A","EPOCH":"2026-03-04T17:34:38.637696","MEAN_MOTION":1.00271829,"ECCENTRICITY":0.0035043,"INCLINATION":4.6427,"RA_OF_ASC_NODE":275.8653,"ARG_OF_PERICENTER":9.4773,"MEAN_ANOMALY":220.8266,"EPHEMERIS_TYPE":0,"CLASSIFICATION_TYPE":"U","NORAD_CAT_ID":63361,"ELEMENT_SET_NO":999,"REV_AT_EPOCH":355,"BSTAR":0,"MEAN_MOTION_DOT":-1.51e-6,"MEAN_MOTION_DDOT":0},{"OBJECT_NAME":"TJS-16","OBJECT_ID":"2025-064A","EPOCH":"2026-03-04T19:35:39.163200","MEAN_MOTION":1.00272427,"ECCENTRICITY":0.0005238,"INCLINATION":0.829,"RA_OF_ASC_NODE":81.9515,"ARG_OF_PERICENTER":257.7958,"MEAN_ANOMALY":277.293,"EPHEMERIS_TYPE":0,"CLASSIFICATION_TYPE":"U","NORAD_CAT_ID":63397,"ELEMENT_SET_NO":999,"REV_AT_EPOCH":334,"BSTAR":0,"MEAN_MOTION_DOT":-1.15e-6,"MEAN_MOTION_DDOT":0},{"OBJECT_NAME":"TJS-17","OBJECT_ID":"2025-073A","EPOCH":"2026-03-04T20:11:03.161184","MEAN_MOTION":1.00271898,"ECCENTRICITY":0.0004504,"INCLINATION":0.7944,"RA_OF_ASC_NODE":83.5501,"ARG_OF_PERICENTER":248.9103,"MEAN_ANOMALY":297.3643,"EPHEMERIS_TYPE":0,"CLASSIFICATION_TYPE":"U","NORAD_CAT_ID":63524,"ELEMENT_SET_NO":999,"REV_AT_EPOCH":324,"BSTAR":0,"MEAN_MOTION_DOT":-8.0e-7,"MEAN_MOTION_DDOT":0},{"OBJECT_NAME":"TIANLIAN 2-05","OBJECT_ID":"2025-084A","EPOCH":"2026-03-04T19:45:38.717856","MEAN_MOTION":1.00273917,"ECCENTRICITY":0.0003202,"INCLINATION":4.7155,"RA_OF_ASC_NODE":280.9688,"ARG_OF_PERICENTER":79.9005,"MEAN_ANOMALY":118.4741,"EPHEMERIS_TYPE":0,"CLASSIFICATION_TYPE":"U","NORAD_CAT_ID":63662,"ELEMENT_SET_NO":999,"REV_AT_EPOCH":333,"BSTAR":0,"MEAN_MOTION_DOT":1.09e-6,"MEAN_MOTION_DDOT":0},{"OBJECT_NAME":"TJS-19","OBJECT_ID":"2025-097A","EPOCH":"2026-03-04T20:01:17.861664","MEAN_MOTION":1.00276487,"ECCENTRICITY":0.0003676,"INCLINATION":3.4646,"RA_OF_ASC_NODE":315.8161,"ARG_OF_PERICENTER":335.6979,"MEAN_ANOMALY":312.5381,"EPHEMERIS_TYPE":0,"CLASSIFICATION_TYPE":"U","NORAD_CAT_ID":63924,"ELEMENT_SET_NO":999,"REV_AT_EPOCH":309,"BSTAR":0,"MEAN_MOTION_DOT":-2.87e-6,"MEAN_MOTION_DDOT":0},{"OBJECT_NAME":"CHINASAT 3B","OBJECT_ID":"2025-106A","EPOCH":"2026-03-04T15:15:38.405088","MEAN_MOTION":1.00269757,"ECCENTRICITY":0.0001854,"INCLINATION":0.0198,"RA_OF_ASC_NODE":124.1411,"ARG_OF_PERICENTER":201.6252,"MEAN_ANOMALY":232.8054,"EPHEMERIS_TYPE":0,"CLASSIFICATION_TYPE":"U","NORAD_CAT_ID":64062,"ELEMENT_SET_NO":999,"REV_AT_EPOCH":301,"BSTAR":0,"MEAN_MOTION_DOT":-5.7e-7,"MEAN_MOTION_DDOT":0}]
